{
    "links": {
        "self": "http://www.neowsapp.com/rest/v1/neo/3716628?api_key=iIulBulltgU6a56xZRHN4H3l9WmuAYTsLGpBGhQ2"
    },
    "id": "3716628",
    "neo_reference_id": "3716628",
    "name": "(2015 HG9)",
    "designation": "2015 HG9",
    "nasa_jpl_url": "http://ssd.jpl.nasa.gov/sbdb.cgi?sstr=3716628",
    "absolute_magnitude_h": 24.1,
    "estimated_diameter": {
        "kilometers": {
            "estimated_diameter_min": 0.040230458,
            "estimated_diameter_max": 0.0899580388
        },
        "meters": {
            "estimated_diameter_min": 40.2304579834,
            "estimated_diameter_max": 89.9580388169
        },
        "miles": {
            "estimated_diameter_min": 0.0249980399,
            "estimated_diameter_max": 0.0558973165
        },
        "feet": {
            "estimated_diameter_min": 131.9896957704,
            "estimated_diameter_max": 295.1379320721
        }
    },
    "is_potentially_hazardous_asteroid": false,
    "close_approach_data": [
        {
            "close_approach_date": "2015-04-11",
            "close_approach_date_full": "2015-Apr-11 13:38",
            "epoch_date_close_approach": 1428759480000,
            "relative_velocity": {
                "kilometers_per_second": "28.4315543284",
                "kilometers_per_hour": "102353.5955823865",
                "miles_per_hour": "63598.543877289"
            },
            "miss_distance": {
                "astronomical": "0.0423669165",
                "lunar": "16.4807305185",
                "kilometers": "6338000.466867855",
                "miles": "3938250.870992199"
            },
            "orbiting_body": "Earth"
        }
    ],
    "orbital_data": {
        "orbit_id": "5",
        "orbit_determination_date": "2019-07-17 06:10:41",
        "first_observation_date": "2015-04-18",
        "last_observation_date": "2015-04-25",
        "data_arc_in_days": 7,
        "observations_used": 34,
        "orbit_uncertainty": "9",
        "minimum_orbit_intersection": ".0395355",
        "jupiter_tisserand_invariant": "3.123",
        "epoch_osculation": "2457135.5",
        "eccentricity": ".8450348508207552",
        "semi_major_axis": "2.130983609623537",
        "inclination": "5.374825563785467",
        "ascending_node_longitude": "226.5664883907199",
        "orbital_period": "1136.236119742424",
        "perihelion_distance": ".3302281929638369",
        "perihelion_argument": "217.4312383920759",
        "aphelion_distance": "3.931739026283237",
        "perihelion_time": "2457081.264565121529",
        "mean_anomaly": "17.18371403355464",
        "mean_motion": ".3168355535833602",
        "equinox": "J2000",
        "orbit_class": {
            "orbit_class_type": "APO",
            "orbit_class_description": "Near-Earth asteroid orbits which cross the Earth’s orbit similar to that of 1862 Apollo",
            "orbit_class_range": "a (semi-major axis) > 1.0 AU; q (perihelion) < 1.017 AU"
        }
    },
    "is_sentry_object": false
}